#dP2018  7  8  0  0  0.00000000      96 __u+U ITR00 FIT  IAC
## 2009      0.00000000   900.00000000 58307 0.0000000000000
+   86   C01C02C03C04C05C06C07C08C09C10C11C12C13C14E01E02E03
+        E04E05E07E08E09E11E12E14E18E19E24E26E30G01G02G03G04
+        G05G06G07G08G09G10G11G12G13G14G15G16G17G18G19G20G21
+        G22G23G24G25G26G27G28G29G30G31G32J01R01R02R03R04R05
+        R07R08R09R10R11R13R14R15R16R17R18R19R20R21R22R23R24
+        R26  0  0  0  0  0  0  0  0  0  0  0  0  0  0  0  0
++         0  0  0  0  0  0  0  0  0  0  0  0  0  0  0  0  0
++         0  0  0  0  0  0  0  0  0  0  0  0  0  0  0  0  0
++         0  0  0  0  0  0  0  0  0  0  0  0  0  0  0  0  0
++         0  0  0  0  0  0  0  0  0  0  0  0  0  0  0  0  0
++         0  0  0  0  0  0  0  0  0  0  0  0  0  0  0  0  0
++         0  0  0  0  0  0  0  0  0  0  0  0  0  0  0  0  0
%c M  cc GPS ccc cccc cccc cccc cccc ccccc ccccc ccccc ccccc
%c cc cc ccc ccc cccc cccc cccc cccc ccccc ccccc ccccc ccccc
%f  0.0000000  0.000000000  0.00000000000  0.000000000000000
%f  0.0000000  0.000000000  0.00000000000  0.000000000000000
%i    0    0    0    0      0      0      0      0         0
%i    0    0    0    0      0      0      0      0         0
/*                                                          
/*   RSA / INFORMATION & ANALYSIS CENTER (IAC) OF MCC       
/*   ULTRA-RAPID DETERMINATION                              
/* PCV:IGS14_2000 OL/AL:FES2004  NONE     YN ORB:CoN CLK:CoN
*  2018 07 08 17  0  0.00000000
PC01 -32358.173354  27050.736989   -742.501264    313.656045
PC02   4363.560608  41937.014535   -119.252494    -16.606441
PC03 -14739.625154  39482.998691  -1015.029880   -298.368731
PC04 -39608.333413  14436.908853   -657.903328   -273.028776
PC05  21950.389933  36007.807154     51.648125    315.337740
PC06 -16778.753685  21335.599167  32476.733206     89.642423
PC07 -22616.973171  35775.145855  -2785.923883     75.956684
PC08  -5682.775524  31009.216408 -27828.822152    428.617989
PC09   -834.099352  24815.571467  34283.739472     32.238579
PC10 -10314.639483  37412.502519 -16819.187800   -370.491792
PC11  15586.679286  -6278.515779  22314.780126   -582.795075
PC12  23704.683828  10508.312422  10244.738961    507.639568
PC13   3011.470241  37809.508627 -18151.568878   -168.745913
PC14  24882.011207 -12226.442782  -3351.423514    202.732219
PE01  12292.847677 -26627.056994   3953.503271   -386.296888
PE02 -12274.990364  26641.160703  -3986.590379     18.752312
PE03 -10304.545738  16093.905303  22617.904488    -52.176410
PE04 -12271.707484 -15623.580878 -21929.118878    -71.101257
PE05 -26921.131467   7125.550143  10042.767832    232.279266
PE07  27741.758618   6005.610581   8399.882255      1.511981
PE08  12399.521260  15391.646770  22043.373674   6548.253427
PE09 -27802.402971  -5686.930444  -8426.749557   6740.791200
PE11 -20668.535910 -14002.129862 -15896.302740   2171.609485
PE12 -13525.878412 -26196.329862   2510.047254   4556.825109
PE14 -22734.026210   6443.296257 -19585.215636 999999.999999
PE18  24408.787129   5123.398419   8516.410457   6074.348660
PE19  12273.380324 -15516.740571 -22007.383574     23.995959
PE24 -16322.668762  -3738.599251  24396.511160   6611.638088
PE26  15718.344894  -5816.703725  24395.573803   5732.805572
PE30   2842.748992  21496.877996 -20159.168921   5694.715813
PG01  13612.985717  -8102.925530  21108.662311    -63.779004
PG02 -14154.577810 -15427.512982 -15919.289648     63.521403
PG03  22780.866558 -12756.305932   4662.211096    102.406754
PG04   2638.189843  15729.896435 -21439.661512     76.558493
PG05 -17605.698248  -4192.373922 -19613.419825     -4.913892
PG06  -6343.364888 -25288.873953  -4964.170182    389.090383
PG07   6545.052158 -22252.511686 -12279.032031    162.289553
PG08  24916.493847   4169.834008   8490.184465   -107.477196
PG09  10586.169141 -11954.147481 -21253.014017    514.019479
PG10  -3067.325458  18564.776251  18724.703289    188.869756
PG11  16165.184021  -3735.238996  20160.029119   -730.939201
PG12 -23509.339897   8362.633896   8629.876953    322.306778
PG13 -23397.461297 -12460.222399   1594.348819    -92.672782
PG14  15987.600342  17899.023447  11871.989175    -97.593645
PG15 -24730.592842   -496.687630   9961.016099   -351.164707
PG16  16270.012057   5832.039430 -20446.243153     18.542530
PG17  -7349.031711 -17687.136516  18840.587042    -80.331960
PG18  15499.538644   1798.924726  21046.052025     31.169438
PG19 -15332.729420 -17756.228561  11998.302264   -422.077488
PG20 -11030.226801  21402.923528  10996.421058    512.025008
PG21  -2181.873874  24789.113048  -8522.838967   -370.417160
PG22  22622.300664  -6761.201252  12388.855014   -451.329639
PG23  20904.991935  -3763.196116 -15907.370231   -214.789517
PG24 -15094.034477   4050.984665  21344.096974    -52.271213
PG25 -19024.904065  17818.661366  -4582.417067   -613.007865
PG26   7524.926394  13485.955577 -21611.305131    -90.307641
PG27  23456.276067  12399.731256  -3100.558338    362.126531
PG28   7144.178771 -18558.474549  18251.639744    729.719979
PG29 -12898.343311   9308.068505 -21295.007339    418.446557
PG30    421.373539 -26310.996087  -2830.835473     53.058267
PG31   6876.160113  24446.223682  -6965.560612    109.134709
PG32   8018.493813  17509.107528  18372.120800   -479.274687
PJ01 -28894.502441  30122.176860  11461.295771   -188.141042
PR01   -450.373090 -11210.799371 -22898.642062     28.778957
PR02 -19692.857965  -3972.101573 -15644.115894    318.666961
PR03 -24979.168733   4993.318948    868.392312    137.135420
PR04 -15273.612078  11131.403645  17145.241218    267.759357
PR05   3001.127828  10734.125628  22942.188634    -36.788142
PR07  24977.775922  -5121.097233  -1177.712776    -41.929207
PR08  15924.680133 -10951.307897 -16591.399498     22.364455
PR09   8442.179082   8515.938284 -22509.556173     17.074503
PR10  13167.914951  -9465.632605 -19676.927534     27.501838
PR11  10694.986255 -22637.429736  -4724.455241    -33.959949
PR13  -8317.028496  -8315.020595  22615.465496    -12.264867
PR14 -13327.607465   9407.816677  19628.547337     28.880441
PR15 -11969.067487  20670.416582   8829.934899    -12.882654
PR16  -1825.480721  22509.778246 -11778.280277     96.531481
PR17 -15440.785321  -4130.226809 -19888.189469    146.304705
PR18  -4362.201360  10880.936582 -22655.156483    202.183448
PR19   8824.031511  20194.739440 -12851.135831    -56.117860
PR20  17537.778458  17619.999698   5829.213262   -344.410046
PR21  15199.665328   3791.978105  20118.134561      8.195339
PR22   2836.858548 -12283.972141  22148.426235    -55.290732
PR23 -11782.864380 -20645.621599   9233.733760    164.500730
PR24 -18003.894247 -16709.453469  -6879.968773   -168.619812
PR26  17697.806989  17694.114921   4884.956662     32.240664
EOF
